GLOBALSTAR M035 [-]     
1 25851U 99037A   23347.90094501 -.00000004  00000+0  22534-2 0  9998
2 25851  51.9916 204.3696 0013714 162.2596 295.2201 11.04528403 35345
GLOBALSTAR M032 [-]     
1 25852U 99037B   23348.38183785 -.00000034  00000+0  10486-2 0  9991
2 25852  51.9968  66.4983 0007851 318.5721  41.4483 11.19046756 73123
GLOBALSTAR M051 [-]     
1 25853U 99037C   23348.16000657 -.00000043  00000+0  72142-3 0  9992
2 25853  51.9806 290.1632 0001685 330.3567  29.7147 11.42193706 69429
GLOBALSTAR M026 [-]     
1 25873U 99041B   23348.26223259 -.00000077  00000+0 -47549-3 0  9996
2 25873  52.0041 327.3321 0001928  52.4298  49.2591 11.06833282 87481
GLOBALSTAR M043 [-]     
1 25874U 99041C   23348.10714010 -.00000095  00000+0 -81046-3 0  9990
2 25874  51.9411 289.6939 0013594  91.0193 357.3571 11.25674748 60811
GLOBALSTAR M028 [-]     
1 25875U 99041D   23348.30753969 -.00000054  00000+0  29610-3 0  9992
2 25875  51.9647  35.6377 0063095 315.2100  44.3677 12.50546154121252
